TOMORROW-S3             
1 62392U 24247R   26068.49782200  .00007664  00000+0  28858-3 0  9991
2 62392  44.9999 117.9871 0000396 320.9462  39.1392 15.27672122 67708
STARLINK-33911          
1 63777U 25091C   26067.96548574  .00035170  00000+0  12813-2 0  9998
2 63777  43.0021  49.4639 0001593 251.2035 108.8644 15.27584249 48878
